{"id":"499","name":"Mars ","centerId":"500@10","centerName":"Sun ","epoch":"2000-Jan-01 12:00:00.0000","elementTable":{"periapsis":206668969654.19858,"inclination":1.849876477108884,"longitudeOfAscendingNode":49.56200565861963,"argumentOfPeriapsis":286.5373830861993,"timeOfPeriapsis":2451508.062923341,"meanMotion":0.000006065270600596257,"meanAnomaly":19.35648274725794,"trueAnomaly":23.33319664407224,"apoapsis":249209296293.7473,"siderealOrbitPeriod":59354318.00266414,"semiMajorAxis":227939132973.9729,"semiMinorAxis":226944549379.96777,"semiLatusRectum":225954305525.7544,"eccentricity":0.093315101458261,"linearEccentricity":21270163319.774117},"physicalDataTable":{"meanRadius":3389920,"mass":6.417099999999999e+23,"siderealRotationRate":0.0000708822,"siderealRotationPeriod":88642.63957918329,"gravParameter":42828375.214,"obliquity":25.19},"vectorTable":{"position":[191100899060.46875,0,-82432340612.71886],"velocity":[-9598.996716165922,0,-24514.626474007586]}}
